{"fetched_at":"2026-07-17T17:38:39.821Z","source":"https://celestrak.org/NORAD/elements/gp.php?NAME=STRIX&FORMAT=JSON","constellation":"synspective","records":[{"OBJECT_NAME":"STRIX-1","OBJECT_ID":"2022-113A","EPOCH":"2026-07-17T07:47:39.098112","CLASSIFICATION_TYPE":"U","MEAN_MOTION":15.41063279,"ECCENTRICITY":0.00055655,"INCLINATION":97.4472,"RA_OF_ASC_NODE":260.9111,"ARG_OF_PERICENTER":126.6334,"MEAN_ANOMALY":233.5425,"EPHEMERIS_TYPE":0,"NORAD_CAT_ID":53815,"ELEMENT_SET_NO":999,"REV_AT_EPOCH":21208,"BSTAR":0.00033969595,"MEAN_MOTION_DOT":0.00013965,"MEAN_MOTION_DDOT":0},{"OBJECT_NAME":"STRIX-3","OBJECT_ID":"2024-047A","EPOCH":"2026-07-17T06:29:57.336000","CLASSIFICATION_TYPE":"U","MEAN_MOTION":15.19829944,"ECCENTRICITY":0.00117388,"INCLINATION":97.6639,"RA_OF_ASC_NODE":174.4023,"ARG_OF_PERICENTER":327.0936,"MEAN_ANOMALY":32.9566,"EPHEMERIS_TYPE":0,"NORAD_CAT_ID":59224,"ELEMENT_SET_NO":999,"REV_AT_EPOCH":12931,"BSTAR":0.00021624059,"MEAN_MOTION_DOT":0.0000457,"MEAN_MOTION_DDOT":0},{"OBJECT_NAME":"STRIX-4","OBJECT_ID":"2024-137A","EPOCH":"2026-07-17T06:08:58.331616","CLASSIFICATION_TYPE":"U","MEAN_MOTION":15.33356604,"ECCENTRICITY":0.00163784,"INCLINATION":43.0151,"RA_OF_ASC_NODE":113.825,"ARG_OF_PERICENTER":145.9706,"MEAN_ANOMALY":214.2202,"EPHEMERIS_TYPE":0,"NORAD_CAT_ID":60352,"ELEMENT_SET_NO":999,"REV_AT_EPOCH":10863,"BSTAR":0.00031689011,"MEAN_MOTION_DOT":0.00010205,"MEAN_MOTION_DDOT":0},{"OBJECT_NAME":"STRIX-2","OBJECT_ID":"2024-248A","EPOCH":"2026-07-17T07:25:42.839904","CLASSIFICATION_TYPE":"U","MEAN_MOTION":15.09201739,"ECCENTRICITY":0.00138696,"INCLINATION":97.63,"RA_OF_ASC_NODE":153.7832,"ARG_OF_PERICENTER":227.7871,"MEAN_ANOMALY":132.2181,"EPHEMERIS_TYPE":0,"NORAD_CAT_ID":62406,"ELEMENT_SET_NO":999,"REV_AT_EPOCH":8613,"BSTAR":0.00016511083,"MEAN_MOTION_DOT":0.00002565,"MEAN_MOTION_DDOT":0},{"OBJECT_NAME":"STRIX-5","OBJECT_ID":"2025-229A","EPOCH":"2026-07-16T12:16:41.035584","CLASSIFICATION_TYPE":"U","MEAN_MOTION":15.04594263,"ECCENTRICITY":0.0037987,"INCLINATION":41.9275,"RA_OF_ASC_NODE":124.7654,"ARG_OF_PERICENTER":245.862,"MEAN_ANOMALY":113.8231,"EPHEMERIS_TYPE":0,"NORAD_CAT_ID":65971,"ELEMENT_SET_NO":999,"REV_AT_EPOCH":4139,"BSTAR":0.00013399,"MEAN_MOTION_DOT":0.00001745,"MEAN_MOTION_DDOT":0},{"OBJECT_NAME":"STRIX-6","OBJECT_ID":"2026-056A","EPOCH":"2026-07-17T07:12:58.438368","CLASSIFICATION_TYPE":"U","MEAN_MOTION":15.00332459,"ECCENTRICITY":0.00166269,"INCLINATION":50.2825,"RA_OF_ASC_NODE":207.4265,"ARG_OF_PERICENTER":359.2627,"MEAN_ANOMALY":0.8295,"EPHEMERIS_TYPE":0,"NORAD_CAT_ID":68291,"ELEMENT_SET_NO":999,"REV_AT_EPOCH":1779,"BSTAR":0.000093725442,"MEAN_MOTION_DOT":0.00000923,"MEAN_MOTION_DDOT":0},{"OBJECT_NAME":"STRIX-7","OBJECT_ID":"2026-112A","EPOCH":"2026-07-17T01:03:56.115936","CLASSIFICATION_TYPE":"U","MEAN_MOTION":15.01616048,"ECCENTRICITY":0.00249075,"INCLINATION":44.9082,"RA_OF_ASC_NODE":35.6117,"ARG_OF_PERICENTER":217.8188,"MEAN_ANOMALY":142.0934,"EPHEMERIS_TYPE":0,"NORAD_CAT_ID":69177,"ELEMENT_SET_NO":999,"REV_AT_EPOCH":836,"BSTAR":0.00015412846,"MEAN_MOTION_DOT":0.00001809,"MEAN_MOTION_DDOT":0},{"OBJECT_NAME":"STRIX-8","OBJECT_ID":"2026-146A","EPOCH":"2026-07-16T21:05:13.540416","CLASSIFICATION_TYPE":"U","MEAN_MOTION":15.0444287,"ECCENTRICITY":0.00069305,"INCLINATION":41.9904,"RA_OF_ASC_NODE":3.7675,"ARG_OF_PERICENTER":34.5343,"MEAN_ANOMALY":325.5933,"EPHEMERIS_TYPE":0,"NORAD_CAT_ID":69701,"ELEMENT_SET_NO":999,"REV_AT_EPOCH":303,"BSTAR":0.0001790932,"MEAN_MOTION_DOT":0.00002356,"MEAN_MOTION_DDOT":0}]}
