STRIX-1                 
1 53815U 22113A   26198.32475808  .00013965  00000+0  33970-3 0  9992
2 53815  97.4472 260.9111 0005565 126.6334 233.5425 15.41063279212088
STRIX-3                 
1 59224U 24047A   26198.27080250  .00004570  00000+0  21624-3 0  9992
2 59224  97.6639 174.4023 0011738 327.0936  32.9566 15.19829944129314
STRIX-4                 
1 60352U 24137A   26198.25623069  .00010205  00000+0  31689-3 0  9999
2 60352  43.0151 113.8250 0016378 145.9706 214.2202 15.33356604108636
STRIX-2                 
1 62406U 24248A   26198.30952361  .00002565  00000+0  16511-3 0  9997
2 62406  97.6300 153.7832 0013869 227.7871 132.2181 15.09201739 86138
STRIX-5                 
1 65971U 25229A   26197.51158606  .00001745  00000+0  13399-3 0  9999
2 65971  41.9275 124.7654 0037987 245.8620 113.8231 15.04594263 41393
STRIX-6                 
1 68291U 26056A   26198.30067637  .00000923  00000+0  93725-4 0  9996
2 68291  50.2825 207.4265 0016626 359.2627   0.8295 15.00332459 17791
STRIX-7                 
1 69177U 26112A   26198.04439949  .00001809  00000+0  15413-3 0  9994
2 69177  44.9082  35.6117 0024907 217.8188 142.0934 15.01616048  8361
STRIX-8                 
1 69701U 26146A   26197.87862894  .00002356  00000+0  17909-3 0  9993
2 69701  41.9904   3.7675 0006930  34.5343 325.5933 15.04442870  3031
